0 COSMOS 1375 DEB
1 16202U 82055D   13282.57935568  .00000213  00000-0  21201-3 0  2195
2 16202 065.8296 302.5902 0088028 198.3734 269.4963 13.95530737590917
0 COSMOS 1375 DEB
1 16202U 82055D   13284.15249571  .00000236  00000-0  22890-3 0  2205
2 16202 065.8296 298.5658 0087871 197.5970 252.7854 13.95531851591134
0 COSMOS 1375 DEB
1 16202U 82055D   13286.15938127  .00000193  00000-0  19828-3 0  2220
2 16202 065.8295 293.4316 0087711 196.5811 255.2031 13.95533139591411
0 COSMOS 1375 DEB
1 16202U 82055D   13287.16326465  .00000209  00000-0  20911-3 0  2232
2 16202 065.8295 290.8633 0087581 196.0881 258.6130 13.95533797591553
0 COSMOS 1375 DEB
1 16202U 82055D   13288.38459424  .00000284  00000-0  26297-3 0  2246
2 16202 065.8297 287.7386 0087493 195.4779 274.4646 13.95535042591728
0 COSMOS 1375 DEB
1 16202U 82055D   13290.10685196  .00000233  00000-0  22687-3 0  2250
2 16202 065.8299 283.3324 0087290 194.6248 286.9367 13.95536279591968
0 COSMOS 1375 DEB
1 16202U 82055D   13291.17315818  .00000249  00000-0  23775-3 0  2266
2 16202 065.8299 280.6046 0087117 194.0853 243.9828 13.95536707592112
0 COSMOS 1375 DEB
1 16202U 82055D   13292.17692071  .00000280  00000-0  26001-3 0  2277
2 16202 065.8301 278.0367 0087045 193.5822 246.8108 13.95537114592254
0 COSMOS 1375 DEB
1 16202U 82055D   13293.18139970  .00000300  00000-0  27405-3 0  2286
2 16202 065.8301 275.4671 0086971 193.0805 253.2370 13.95537833592392
0 COSMOS 1375 DEB
1 16202U 82055D   13294.39805794  .00000300  00000-0  27420-3 0  2292
2 16202 065.8301 272.3548 0086821 192.4640 245.6465 13.95538965592561
0 COSMOS 1375 DEB
1 16202U 82055D   13295.98027042  .00000309  00000-0  28099-3 0  2304
2 16202 065.8301 268.3072 0086645 191.6543 274.5916 13.95540234592783
